{
  "type": "FeatureCollection",
  "features": [
    {
      "type": "Feature",
      "properties": {
        "norad_id": 31183,
        "name": "FENGYUN 1C DEB",
        "group": "fengyun-1c-debris",
        "lat": 20.955643978964773,
        "lon": -16.71602814330207,
        "alt_km": 698.0949274746108,
        "timestamp": "2025-12-27T22:26:48.883903+00:00",
        "meta_object_name": "FENGYUN 1C DEB",
        "meta_object_id": "1999-025BJM",
        "meta_epoch": "2025-12-26T10:37:27.297120",
        "meta_mean_motion": 14.50562406,
        "meta_eccentricity": 0.0047805,
        "meta_inclination": 99.0384,
        "meta_ra_of_asc_node": 345.1775,
        "meta_arg_of_pericenter": 67.2137,
        "meta_mean_anomaly": 84.4667,
        "meta_ephemeris_type": 0,
        "meta_classification_type": "U",
        "meta_norad_cat_id": 31183,
        "meta_element_set_no": 999,
        "meta_rev_at_epoch": 97681,
        "meta_bstar": 0.0013516,
        "meta_mean_motion_dot": 5.326e-05,
        "meta_mean_motion_ddot": 0,
        "tle_line1": "1 31183U 99025BJM 25360.44267705  .00005326  00000+0  13516-2 0  9995",
        "tle_line2": "2 31183  99.0384 345.1775 0047805  67.2137  84.4667 14.50562406976812"
      },
      "geometry": {
        "type": "Point",
        "coordinates": [
          -16.71602814330207,
          20.955643978964773
        ]
      }
    },
    {
      "type": "Feature",
      "properties": {
        "norad_id": 31185,
        "name": "FENGYUN 1C DEB",
        "group": "fengyun-1c-debris",
        "lat": -74.86919630365466,
        "lon": 142.85572631597134,
        "alt_km": 919.6797602769147,
        "timestamp": "2025-12-27T22:26:48.883913+00:00",
        "meta_object_name": "FENGYUN 1C DEB",
        "meta_object_id": "1999-025BJP",
        "meta_epoch": "2025-12-03T06:44:56.905152",
        "meta_mean_motion": 14.03019915,
        "meta_eccentricity": 0.0041359,
        "meta_inclination": 98.8321,
        "meta_ra_of_asc_node": 334.0356,
        "meta_arg_of_pericenter": 132.5488,
        "meta_mean_anomaly": 227.9182,
        "meta_ephemeris_type": 0,
        "meta_classification_type": "U",
        "meta_norad_cat_id": 31185,
        "meta_element_set_no": 999,
        "meta_rev_at_epoch": 62204,
        "meta_bstar": 0.0004459,
        "meta_mean_motion_dot": 6.55e-06,
        "meta_mean_motion_ddot": 0,
        "tle_line1": "1 31185U 99025BJP 25337.28121418  .00000655  00000+0  44590-3 0  9990",
        "tle_line2": "2 31185  98.8321 334.0356 0041359 132.5488 227.9182 14.03019915622046"
      },
      "geometry": {
        "type": "Point",
        "coordinates": [
          142.85572631597134,
          -74.86919630365466
        ]
      }
    },
    {
      "type": "Feature",
      "properties": {
        "norad_id": 31186,
        "name": "FENGYUN 1C DEB",
        "group": "fengyun-1c-debris",
        "lat": -77.06773838137413,
        "lon": 52.9115438324191,
        "alt_km": 866.353031386705,
        "timestamp": "2025-12-27T22:26:48.883923+00:00",
        "meta_object_name": "FENGYUN 1C DEB",
        "meta_object_id": "1999-025BJQ",
        "meta_epoch": "2025-12-25T13:43:17.153184",
        "meta_mean_motion": 14.12928347,
        "meta_eccentricity": 0.0026325,
        "meta_inclination": 99.179,
        "meta_ra_of_asc_node": 275.2512,
        "meta_arg_of_pericenter": 28.2591,
        "meta_mean_anomaly": 97.0962,
        "meta_ephemeris_type": 0,
        "meta_classification_type": "U",
        "meta_norad_cat_id": 31186,
        "meta_element_set_no": 999,
        "meta_rev_at_epoch": 96286,
        "meta_bstar": 0.00048627,
        "meta_mean_motion_dot": 8.62e-06,
        "meta_mean_motion_ddot": 0,
        "tle_line1": "1 31186U 99025BJQ 25359.57172631  .00000862  00000+0  48627-3 0  9995",
        "tle_line2": "2 31186  99.1790 275.2512 0026325  28.2591  97.0962 14.12928347962860"
      },
      "geometry": {
        "type": "Point",
        "coordinates": [
          52.9115438324191,
          -77.06773838137413
        ]
      }
    },
    {
      "type": "Feature",
      "properties": {
        "norad_id": 31187,
        "name": "FENGYUN 1C DEB",
        "group": "fengyun-1c-debris",
        "lat": -4.724799002701942,
        "lon": 46.346528696884285,
        "alt_km": 543.535777366319,
        "timestamp": "2025-12-27T22:26:48.883933+00:00",
        "meta_object_name": "FENGYUN 1C DEB",
        "meta_object_id": "1999-025BJR",
        "meta_epoch": "2025-12-25T20:15:20.536416",
        "meta_mean_motion": 14.59807877,
        "meta_eccentricity": 0.0218863,
        "meta_inclination": 99.2406,
        "meta_ra_of_asc_node": 224.7875,
        "meta_arg_of_pericenter": 183.8683,
        "meta_mean_anomaly": 176.0831,
        "meta_ephemeris_type": 0,
        "meta_classification_type": "U",
        "meta_norad_cat_id": 31187,
        "meta_element_set_no": 999,
        "meta_rev_at_epoch": 69291,
        "meta_bstar": 0.002922039,
        "meta_mean_motion_dot": 0.00019543,
        "meta_mean_motion_ddot": 0,
        "tle_line1": "1 31187U 99025BJR 25359.84398769  .00019543  00000+0  29220-2 0  9991",
        "tle_line2": "2 31187  99.2406 224.7875 0218863 183.8683 176.0831 14.59807877692911"
      },
      "geometry": {
        "type": "Point",
        "coordinates": [
          46.346528696884285,
          -4.724799002701942
        ]
      }
    },
    {
      "type": "Feature",
      "properties": {
        "norad_id": 31188,
        "name": "FENGYUN 1C DEB",
        "group": "fengyun-1c-debris",
        "lat": -4.40457226805035,
        "lon": -111.03439449167426,
        "alt_km": 774.7248679470613,
        "timestamp": "2025-12-27T22:26:48.883943+00:00",
        "meta_object_name": "FENGYUN 1C DEB",
        "meta_object_id": "1999-025BJS",
        "meta_epoch": "2025-12-27T12:04:35.570208",
        "meta_mean_motion": 14.23923471,
        "meta_eccentricity": 0.0061021,
        "meta_inclination": 98.7473,
        "meta_ra_of_asc_node": 69.2153,
        "meta_arg_of_pericenter": 207.1296,
        "meta_mean_anomaly": 283.7217,
        "meta_ephemeris_type": 0,
        "meta_classification_type": "U",
        "meta_norad_cat_id": 31188,
        "meta_element_set_no": 999,
        "meta_rev_at_epoch": 96546,
        "meta_bstar": 0.0016462,
        "meta_mean_motion_dot": 3.804e-05,
        "meta_mean_motion_ddot": 0,
        "tle_line1": "1 31188U 99025BJS 25361.50318947  .00003804  00000+0  16462-2 0  9995",
        "tle_line2": "2 31188  98.7473  69.2153 0061021 207.1296 283.7217 14.23923471965460"
      },
      "geometry": {
        "type": "Point",
        "coordinates": [
          -111.03439449167426,
          -4.40457226805035
        ]
      }
    },
    {
      "type": "Feature",
      "properties": {
        "norad_id": 31190,
        "name": "FENGYUN 1C DEB",
        "group": "fengyun-1c-debris",
        "lat": -42.06588726308839,
        "lon": 22.258644113191544,
        "alt_km": 896.5269751250162,
        "timestamp": "2025-12-27T22:26:48.883952+00:00",
        "meta_object_name": "FENGYUN 1C DEB",
        "meta_object_id": "1999-025BJU",
        "meta_epoch": "2025-12-26T07:18:10.338912",
        "meta_mean_motion": 14.03633883,
        "meta_eccentricity": 0.0067717,
        "meta_inclination": 98.8194,
        "meta_ra_of_asc_node": 12.6224,
        "meta_arg_of_pericenter": 221.3183,
        "meta_mean_anomaly": 138.285,
        "meta_ephemeris_type": 0,
        "meta_classification_type": "U",
        "meta_norad_cat_id": 31190,
        "meta_element_set_no": 999,
        "meta_rev_at_epoch": 95737,
        "meta_bstar": 0.00062245,
        "meta_mean_motion_dot": 9.55e-06,
        "meta_mean_motion_ddot": 0,
        "tle_line1": "1 31190U 99025BJU 25360.30428633  .00000955  00000+0  62245-3 0  9994",
        "tle_line2": "2 31190  98.8194  12.6224 0067717 221.3183 138.2850 14.03633883957377"
      },
      "geometry": {
        "type": "Point",
        "coordinates": [
          22.258644113191544,
          -42.06588726308839
        ]
      }
    },
    {
      "type": "Feature",
      "properties": {
        "norad_id": 31191,
        "name": "FENGYUN 1C DEB",
        "group": "fengyun-1c-debris",
        "lat": 57.946066274051084,
        "lon": -111.05961029139625,
        "alt_km": 749.6348014667219,
        "timestamp": "2025-12-27T22:26:48.883962+00:00",
        "meta_object_name": "FENGYUN 1C DEB",
        "meta_object_id": "1999-025BJV",
        "meta_epoch": "2025-12-27T03:50:16.442592",
        "meta_mean_motion": 14.40822618,
        "meta_eccentricity": 0.00929865,
        "meta_inclination": 98.7827,
        "meta_ra_of_asc_node": 262.4381,
        "meta_arg_of_pericenter": 151.4879,
        "meta_mean_anomaly": 209.1441,
        "meta_ephemeris_type": 0,
        "meta_classification_type": "U",
        "meta_norad_cat_id": 31191,
        "meta_element_set_no": 999,
        "meta_rev_at_epoch": 98220,
        "meta_bstar": 0.000355259,
        "meta_mean_motion_dot": 1.149e-05,
        "meta_mean_motion_ddot": 0,
        "tle_line1": "1 31191U 99025BJV 25361.15991253  .00001149  00000+0  35526-3 0  9990",
        "tle_line2": "2 31191  98.7827 262.4381 0092986 151.4879 209.1441 14.40822618982201"
      },
      "geometry": {
        "type": "Point",
        "coordinates": [
          -111.05961029139625,
          57.946066274051084
        ]
      }
    }
  ]
}